NORAD_CAT_ID,OBJECT_NAME,OBJECT_TYPE,EPOCH,MEAN_MOTION,ECCENTRICITY,INCLINATION,RA_OF_ASC_NODE,ARG_OF_PERICENTER,MEAN_ANOMALY,BSTAR,MEAN_MOTION_DOT,MEAN_MOTION_DDOT,TLE_LINE0,TLE_LINE1,TLE_LINE2,SEMIMAJOR_AXIS,PERIOD,APOGEE,PERIGEE,DECAYED
55432.0,STARLINK-5637,PAYLOAD,2023-04-29 17:16:50,14.98337744,0.0002629,70.0007,219.1446,265.6167,94.4692,-0.00019154,-2.378e-05,0.0,0 STARLINK-5637,1 55432U 23014AT  23119.72002700 -.00002378  00000-0 -19154-3 0  9998,2 55432  70.0007 219.1446 0002629 265.6167  94.4692 14.98337744 13608,6950.169,96.107,573.861,570.207,0.0
55432.0,STARLINK-5637,PAYLOAD,2023-04-30 14:06:35,14.98328808,0.0002666,70.0009,216.9577,263.1886,96.897,-4.3182e-05,-6.08e-06,0.0,0 STARLINK-5637,1 55432U 23014AT  23120.58790540 -.00000608  00000-0 -43182-4 0  9993,2 55432  70.0009 216.9577 0002666 263.1886  96.8970 14.98328808 14676,6950.197,96.107,573.914,570.209,0.0
55432.0,STARLINK-5637,PAYLOAD,2023-05-01 12:32:28,14.98325445,0.0002828,70.0002,214.5996,261.8409,98.243,5.7809e-06,-2.4e-07,0.0,0 STARLINK-5637,1 55432U 23014AT  23121.52254681 -.00000024  00000-0  57809-5 0  9992,2 55432  70.0002 214.5996 0002828 261.8409  98.2430 14.98325445 13876,6950.207,96.107,574.037,570.106,0.0
55432.0,STARLINK-5637,PAYLOAD,2023-05-01 15:44:44,14.98324457,0.000287,70.0002,214.263,262.748,97.3352,-9.2798e-06,-2.04e-06,0.0,0 STARLINK-5637,1 55432U 23014AT  23121.65606835 -.00000204  00000-0 -92798-5 0  9995,2 55432  70.0002 214.2630 0002870 262.7480  97.3352 14.98324457 14836,6950.21,96.107,574.07,570.08,0.0
55432.0,STARLINK-5637,PAYLOAD,2023-05-02 12:34:28,14.98334076,0.0003038,70.0,212.0748,265.0078,95.0735,5.8508e-05,6.05e-06,0.0,0 STARLINK-5637,1 55432U 23014AT  23122.52394014  .00000605  00000-0  58508-4 0  9998,2 55432  70.0000 212.0748 0003038 265.0078  95.0735 14.98334076 14025,6950.18,96.107,574.157,569.934,0.0
55432.0,STARLINK-5637,PAYLOAD,2023-05-02 15:46:44,14.98335669,0.0003017,70.0001,211.7382,264.7509,95.3306,7.4957e-05,8.02e-06,0.0,0 STARLINK-5637,1 55432U 23014AT  23122.65745824  .00000802  00000-0  74957-4 0  9996,2 55432  70.0001 211.7382 0003017 264.7509  95.3306 14.98335669 14989,6950.175,96.107,574.137,569.943,0.0
55432.0,STARLINK-5637,PAYLOAD,2023-05-03 11:00:21,14.98325995,0.0003017,70.0001,209.7185,269.1249,90.9565,1.968e-06,-7e-07,0.0,0 STARLINK-5637,1 55432U 23014AT  23123.45858654 -.00000070  00000-0  19680-5 0  9992,2 55432  70.0001 209.7185 0003017 269.1249  90.9565 14.98325995 14166,6950.205,96.107,574.167,569.973,0.0
55432.0,STARLINK-5637,PAYLOAD,2023-05-03 12:36:30,14.98325191,0.000303,70.0005,209.5506,270.491,89.5902,-3.5493e-06,-1.35e-06,0.0,0 STARLINK-5637,1 55432U 23014AT  23123.52534739 -.00000135  00000-0 -35493-5 0  9998,2 55432  70.0005 209.5506 0003030 270.4910  89.5902 14.98325191 15113,6950.208,96.107,574.179,569.967,0.0
55432.0,STARLINK-5637,PAYLOAD,2023-05-03 15:48:46,14.98324625,0.0003169,69.9999,209.2135,269.9851,90.0944,-2.3591e-05,-3.74e-06,0.0,0 STARLINK-5637,1 55432U 23014AT  23123.65886837 -.00000374  00000-0 -23591-4 0  9991,2 55432  69.9999 209.2135 0003169 269.9851  90.0944 14.98324625 15133,6950.21,96.107,574.277,569.872,0.0
55432.0,STARLINK-5637,PAYLOAD,2023-05-04 11:02:22,14.98331986,0.0003197,69.9999,207.1936,272.1044,87.9749,-6.8545e-05,-9.11e-06,0.0,0 STARLINK-5637,1 55432U 23014AT  23124.45998556 -.00000911  00000-0 -68545-4 0  9997,2 55432  69.9999 207.1936 0003197 272.1044  87.9749 14.98331986 14315,6950.187,96.107,574.274,569.83,0.0
55432.0,STARLINK-5637,PAYLOAD,2023-05-04 12:38:30,14.98333981,0.000321,69.9998,207.0252,271.1054,88.9738,-4.6926e-05,-6.53e-06,0.0,0 STARLINK-5637,1 55432U 23014AT  23124.52674342 -.00000653  00000-0 -46926-4 0  9991,2 55432  69.9998 207.0252 0003210 271.1054  88.9738 14.98333981 15261,6950.181,96.107,574.277,569.815,0.0
55432.0,STARLINK-5637,PAYLOAD,2023-05-04 15:50:46,14.98334301,0.0003206,69.9998,206.6885,271.221,88.8582,-4.0495e-05,-5.76e-06,0.0,0 STARLINK-5637,1 55432U 23014AT  23124.66026276 -.00000576  00000-0 -40495-4 0  9992,2 55432  69.9998 206.6885 0003206 271.2210  88.8582 14.98334301 15283,6950.18,96.107,574.273,569.816,0.0
55432.0,STARLINK-5637,PAYLOAD,2023-05-05 12:40:31,14.98329868,0.0003275,69.9996,204.5005,269.0394,91.0389,6.9488e-05,7.36e-06,0.0,0 STARLINK-5637,1 55432U 23014AT  23125.52814156  .00000736  00000-0  69488-4 0  9999,2 55432  69.9996 204.5005 0003275 269.0394  91.0389 14.98329868 14479,6950.193,96.107,574.334,569.782,0.0
55432.0,STARLINK-5637,PAYLOAD,2023-05-05 14:16:39,14.98330647,0.0003265,69.9996,204.3323,269.0686,91.0099,7.7078e-05,8.27e-06,0.0,0 STARLINK-5637,1 55432U 23014AT  23125.59490081  .00000827  00000-0  77078-4 0  9998,2 55432  69.9996 204.3323 0003265 269.0686  91.0099 14.98330647 15424,6950.191,96.107,574.325,569.787,0.0
55432.0,STARLINK-5637,PAYLOAD,2023-05-06 14:18:40,14.98332962,0.0003243,69.9996,201.8075,268.6231,91.4556,2.9919e-05,2.64e-06,0.0,0 STARLINK-5637,1 55432U 23014AT  23126.59630025  .00000264  00000-0  29919-4 0  9999,2 55432  69.9996 201.8075 0003243 268.6231  91.4556 14.98332962 15577,6950.184,96.107,574.303,569.795,0.0
55432.0,STARLINK-5637,PAYLOAD,2023-05-06 22:19:20,14.98331274,0.0003276,69.9996,200.9653,272.1904,87.888,3.7457e-06,-4.8e-07,0.0,0 STARLINK-5637,1 55432U 23014AT  23126.93010153 -.00000048  00000-0  37457-5 0  9999,2 55432  69.9996 200.9653 0003276 272.1904  87.8880 14.98331274 14687,6950.189,96.107,574.331,569.777,0.0
55432.0,STARLINK-5637,PAYLOAD,2023-05-07 12:44:34,14.98322669,0.0003073,69.9999,199.4499,270.1388,89.9419,-8.7057e-05,-1.131e-05,0.0,0 STARLINK-5637,1 55432U 23014AT  23127.53095092 -.00001131  00000-0 -87057-4 0  9996,2 55432  69.9999 199.4499 0003073 270.1388  89.9419 14.98322669 14778,6950.216,96.107,574.216,569.945,0.0
55432.0,STARLINK-5637,PAYLOAD,2023-05-07 14:20:42,14.98323217,0.0003098,69.9999,199.2817,272.0894,87.991,-9.1234e-05,-1.181e-05,0.0,0 STARLINK-5637,1 55432U 23014AT  23127.59771115 -.00001181  00000-0 -91234-4 0  9996,2 55432  69.9999 199.2817 0003098 272.0894  87.9910 14.98323217 15720,6950.214,96.107,574.232,569.926,0.0
55432.0,STARLINK-5637,PAYLOAD,2023-05-08 04:45:54,14.98330868,0.0003283,69.9993,197.7668,271.0828,88.9955,3.5821e-05,3.34e-06,0.0,0 STARLINK-5637,1 55432U 23014AT  23128.19854289  .00000334  00000-0  35821-4 0  9994,2 55432  69.9993 197.7668 0003283 271.0828  88.9955 14.98330868 14878,6950.19,96.107,574.337,569.773,0.0
55432.0,STARLINK-5637,PAYLOAD,2023-05-08 14:22:42,14.98337638,0.0003409,69.9991,196.7567,269.6251,90.4517,3.7335e-05,3.53e-06,0.0,0 STARLINK-5637,1 55432U 23014AT  23128.59909759  .00000353  00000-0  37335-4 0  9994,2 55432  69.9991 196.7567 0003409 269.6251  90.4517 14.98337638 15871,6950.169,96.107,574.404,569.665,0.0
55432.0,STARLINK-5637,PAYLOAD,2023-05-09 12:48:35,14.98330297,0.0003292,69.9993,194.4003,270.8415,89.2367,0.00010421,1.151e-05,0.0,0 STARLINK-5637,1 55432U 23014AT  23129.53373988  .00001151  00000-0  10421-3 0  9991,2 55432  69.9993 194.4003 0003292 270.8415  89.2367 14.98330297 15074,6950.192,96.107,574.345,569.769,0.0
55432.0,STARLINK-5637,PAYLOAD,2023-05-10 12:50:35,14.98335519,0.0003097,69.9999,191.8782,268.1147,91.9657,-1.0412e-05,-2.17e-06,0.0,0 STARLINK-5637,1 55432U 23014AT  23130.53513821 -.00000217  00000-0 -10412-4 0  9990,2 55432  69.9999 191.8782 0003097 268.1147  91.9657 14.98335519 16165,6950.176,96.107,574.193,569.888,0.0
55432.0,STARLINK-5637,PAYLOAD,2023-05-10 14:26:43,14.98335387,0.0003107,69.9998,191.7097,268.3974,91.6829,-1.1779e-05,-2.34e-06,0.0,0 STARLINK-5637,1 55432U 23014AT  23130.60189807 -.00000234  00000-0 -11779-4 0  9997,2 55432  69.9998 191.7097 0003107 268.3974  91.6829 14.98335387 15232,6950.176,96.107,574.201,569.882,0.0
55432.0,STARLINK-5637,PAYLOAD,2023-05-10 20:51:16,14.98331426,0.0003084,69.9998,191.0352,269.8363,90.2442,-3.4969e-05,-5.1e-06,0.0,0 STARLINK-5637,1 55432U 23014AT  23130.86894056 -.00000510  00000-0 -34969-4 0  9997,2 55432  69.9998 191.0352 0003084 269.8363  90.2442 14.98331426 16216,6950.188,96.107,574.197,569.91,0.0
55432.0,STARLINK-5637,PAYLOAD,2023-05-11 11:16:28,14.98332286,0.0003114,69.9997,189.5197,269.23,90.8502,-1.7045e-05,-2.96e-06,0.0,0 STARLINK-5637,1 55432U 23014AT  23131.46977814 -.00000296  00000-0 -17045-4 0  9995,2 55432  69.9997 189.5197 0003114 269.2300  90.8502 14.98332286 16301,6950.186,96.107,574.215,569.887,0.0
55432.0,STARLINK-5637,PAYLOAD,2023-05-11 20:53:17,14.98329495,0.0003126,69.9996,188.5095,271.7372,88.3429,-2.5864e-05,-4.02e-06,0.0,0 STARLINK-5637,1 55432U 23014AT  23131.87033983 -.00000402  00000-0 -25864-4 0  9997,2 55432  69.9996 188.5095 0003126 271.7372  88.3429 14.98329495 16360,6950.194,96.107,574.232,569.887,0.0
55432.0,STARLINK-5637,PAYLOAD,2023-05-12 04:53:57,14.98328625,0.0003171,69.9992,187.6682,270.7409,89.3387,-4.0723e-05,-5.79e-06,0.0,0 STARLINK-5637,1 55432U 23014AT  23132.20414079 -.00000579  00000-0 -40723-4 0  9990,2 55432  69.9992 187.6682 0003171 270.7409  89.3387 14.98328625 16412,6950.197,96.107,574.266,569.858,0.0
55432.0,STARLINK-5637,PAYLOAD,2023-05-12 20:55:18,14.98328104,0.0003189,69.9993,185.985,271.36,88.7193,-2.5921e-05,-4.02e-06,0.0,0 STARLINK-5637,1 55432U 23014AT  23132.87174122 -.00000402  00000-0 -25921-4 0  9993,2 55432  69.9993 185.9850 0003189 271.3600  88.7193 14.98328104 16511,6950.199,96.107,574.28,569.847,0.0
55432.0,STARLINK-5637,PAYLOAD,2023-05-13 12:56:38,14.98331458,0.0003263,69.999,184.3019,271.0221,89.0564,1.6422e-05,1.03e-06,0.0,0 STARLINK-5637,1 55432U 23014AT  23133.53933785  .00000103  00000-0  16422-4 0  9997,2 55432  69.9990 184.3019 0003263 271.0221  89.0564 14.98331458 16610,6950.188,96.107,574.321,569.786,0.0
55432.0,STARLINK-5637,PAYLOAD,2023-05-13 20:57:19,14.98322271,0.0003142,69.9991,183.4599,275.7753,84.3048,7.4414e-05,7.95e-06,0.0,0 STARLINK-5637,1 55432U 23014AT  23133.87314323  .00000795  00000-0  74414-4 0  9997,2 55432  69.9991 183.4599 0003142 275.7753  84.3048 14.98322271 16664,6950.217,96.107,574.266,569.898,0.0
